{"fetched_at":"2026-07-21T07:06:28.574Z","source":"https://celestrak.org/NORAD/elements/gp.php?GROUP=oneweb&FORMAT=JSON","constellation":"oneweb","records":[{"OBJECT_NAME":"ONEWEB-0656","OBJECT_ID":"2023-029X","EPOCH":"2026-07-20T16:32:01.500864","CLASSIFICATION_TYPE":"U","MEAN_MOTION":13.2077013,"ECCENTRICITY":0.00017857,"INCLINATION":87.9181,"RA_OF_ASC_NODE":267.7549,"ARG_OF_PERICENTER":88.0324,"MEAN_ANOMALY":272.1014,"EPHEMERIS_TYPE":0,"NORAD_CAT_ID":55817,"ELEMENT_SET_NO":999,"REV_AT_EPOCH":16557,"BSTAR":-0.000023505475,"MEAN_MOTION_DOT":3e-8,"MEAN_MOTION_DDOT":0},{"OBJECT_NAME":"ONEWEB-0657","OBJECT_ID":"2023-029Y","EPOCH":"2026-07-20T19:28:31.015776","CLASSIFICATION_TYPE":"U","MEAN_MOTION":13.19727382,"ECCENTRICITY":0.0002006,"INCLINATION":87.9183,"RA_OF_ASC_NODE":298.2787,"ARG_OF_PERICENTER":77.2131,"MEAN_ANOMALY":282.9226,"EPHEMERIS_TYPE":0,"NORAD_CAT_ID":55818,"ELEMENT_SET_NO":999,"REV_AT_EPOCH":16334,"BSTAR":6.17874e-7,"MEAN_MOTION_DOT":1.3e-7,"MEAN_MOTION_DDOT":0},{"OBJECT_NAME":"ONEWEB-0658","OBJECT_ID":"2023-029Z","EPOCH":"2026-07-20T19:21:40.469760","CLASSIFICATION_TYPE":"U","MEAN_MOTION":13.19726227,"ECCENTRICITY":0.00023886,"INCLINATION":87.9193,"RA_OF_ASC_NODE":298.2582,"ARG_OF_PERICENTER":104.3397,"MEAN_ANOMALY":255.8001,"EPHEMERIS_TYPE":0,"NORAD_CAT_ID":55819,"ELEMENT_SET_NO":999,"REV_AT_EPOCH":16335,"BSTAR":-0.0000651501,"MEAN_MOTION_DOT":-1.3e-7,"MEAN_MOTION_DDOT":0},{"OBJECT_NAME":"ONEWEB-0660","OBJECT_ID":"2023-029AA","EPOCH":"2026-07-20T18:29:50.248608","CLASSIFICATION_TYPE":"U","MEAN_MOTION":13.14501951,"ECCENTRICITY":0.00020029,"INCLINATION":87.8972,"RA_OF_ASC_NODE":283.0096,"ARG_OF_PERICENTER":109.0726,"MEAN_ANOMALY":251.0621,"EPHEMERIS_TYPE":0,"NORAD_CAT_ID":55820,"ELEMENT_SET_NO":999,"REV_AT_EPOCH":16381,"BSTAR":-0.000016006871,"MEAN_MOTION_DOT":7e-8,"MEAN_MOTION_DDOT":0},{"OBJECT_NAME":"ONEWEB-0661","OBJECT_ID":"2023-029AB","EPOCH":"2026-07-20T17:30:28.170144","CLASSIFICATION_TYPE":"U","MEAN_MOTION":13.14503374,"ECCENTRICITY":0.00018599,"INCLINATION":87.895,"RA_OF_ASC_NODE":283.0571,"ARG_OF_PERICENTER":107.7565,"MEAN_ANOMALY":252.3768,"EPHEMERIS_TYPE":0,"NORAD_CAT_ID":55821,"ELEMENT_SET_NO":999,"REV_AT_EPOCH":16379,"BSTAR":-0.00026707704,"MEAN_MOTION_DOT":-8.6e-7,"MEAN_MOTION_DDOT":0},{"OBJECT_NAME":"ONEWEB-0662","OBJECT_ID":"2023-029AC","EPOCH":"2026-07-20T18:20:42.922752","CLASSIFICATION_TYPE":"U","MEAN_MOTION":13.14502451,"ECCENTRICITY":0.00020096,"INCLINATION":87.8955,"RA_OF_ASC_NODE":283.0555,"ARG_OF_PERICENTER":108.8884,"MEAN_ANOMALY":251.2464,"EPHEMERIS_TYPE":0,"NORAD_CAT_ID":55822,"ELEMENT_SET_NO":999,"REV_AT_EPOCH":16384,"BSTAR":0.00037985664,"MEAN_MOTION_DOT":0.00000154,"MEAN_MOTION_DDOT":0},{"OBJECT_NAME":"ONEWEB-0663","OBJECT_ID":"2023-029AD","EPOCH":"2026-07-20T22:44:11.083200","CLASSIFICATION_TYPE":"U","MEAN_MOTION":13.20871838,"ECCENTRICITY":0.00022557,"INCLINATION":87.9182,"RA_OF_ASC_NODE":267.7741,"ARG_OF_PERICENTER":108.3834,"MEAN_ANOMALY":251.7545,"EPHEMERIS_TYPE":0,"NORAD_CAT_ID":55823,"ELEMENT_SET_NO":999,"REV_AT_EPOCH":16560,"BSTAR":-0.000097316638,"MEAN_MOTION_DOT":-2.7e-7,"MEAN_MOTION_DDOT":0},{"OBJECT_NAME":"ONEWEB-0664","OBJECT_ID":"2023-029AE","EPOCH":"2026-07-20T10:45:22.267296","CLASSIFICATION_TYPE":"U","MEAN_MOTION":13.20772242,"ECCENTRICITY":0.00016479,"INCLINATION":87.9167,"RA_OF_ASC_NODE":267.851,"ARG_OF_PERICENTER":105.7229,"MEAN_ANOMALY":254.4087,"EPHEMERIS_TYPE":0,"NORAD_CAT_ID":55824,"ELEMENT_SET_NO":999,"REV_AT_EPOCH":16553,"BSTAR":-0.000019253709,"MEAN_MOTION_DOT":5e-8,"MEAN_MOTION_DDOT":0},{"OBJECT_NAME":"ONEWEB-0665","OBJECT_ID":"2023-029AF","EPOCH":"2026-07-20T17:25:54.361632","CLASSIFICATION_TYPE":"U","MEAN_MOTION":13.14502792,"ECCENTRICITY":0.00021024,"INCLINATION":87.895,"RA_OF_ASC_NODE":283.0382,"ARG_OF_PERICENTER":108.1228,"MEAN_ANOMALY":252.0131,"EPHEMERIS_TYPE":0,"NORAD_CAT_ID":55825,"ELEMENT_SET_NO":999,"REV_AT_EPOCH":16381,"BSTAR":-0.00038612101,"MEAN_MOTION_DOT":-0.0000013,"MEAN_MOTION_DDOT":0},{"OBJECT_NAME":"ONEWEB-0666","OBJECT_ID":"2023-029AG","EPOCH":"2026-07-20T17:52:00.434208","CLASSIFICATION_TYPE":"U","MEAN_MOTION":13.20770042,"ECCENTRICITY":0.00023609,"INCLINATION":87.9167,"RA_OF_ASC_NODE":267.7819,"ARG_OF_PERICENTER":81.0405,"MEAN_ANOMALY":279.0996,"EPHEMERIS_TYPE":0,"NORAD_CAT_ID":55826,"ELEMENT_SET_NO":999,"REV_AT_EPOCH":16558,"BSTAR":0.00017150761,"MEAN_MOTION_DOT":8.3e-7,"MEAN_MOTION_DDOT":0},{"OBJECT_NAME":"ONEWEB-0667","OBJECT_ID":"2023-029AH","EPOCH":"2026-07-20T17:44:44.717280","CLASSIFICATION_TYPE":"U","MEAN_MOTION":13.20763109,"ECCENTRICITY":0.00021829,"INCLINATION":87.9235,"RA_OF_ASC_NODE":267.7448,"ARG_OF_PERICENTER":91.8708,"MEAN_ANOMALY":268.2676,"EPHEMERIS_TYPE":0,"NORAD_CAT_ID":55827,"ELEMENT_SET_NO":999,"REV_AT_EPOCH":16557,"BSTAR":-0.0014299958,"MEAN_MOTION_DOT":-0.00000568,"MEAN_MOTION_DDOT":0},{"OBJECT_NAME":"ONEWEB-0669","OBJECT_ID":"2023-029AJ","EPOCH":"2026-07-20T04:53:50.332992","CLASSIFICATION_TYPE":"U","MEAN_MOTION":13.20770956,"ECCENTRICITY":0.00015522,"INCLINATION":87.9179,"RA_OF_ASC_NODE":267.8618,"ARG_OF_PERICENTER":88.7705,"MEAN_ANOMALY":271.3606,"EPHEMERIS_TYPE":0,"NORAD_CAT_ID":55828,"ELEMENT_SET_NO":999,"REV_AT_EPOCH":16550,"BSTAR":0.000097068745,"MEAN_MOTION_DOT":5.2e-7,"MEAN_MOTION_DDOT":0},{"OBJECT_NAME":"ONEWEB-0670","OBJECT_ID":"2023-029AK","EPOCH":"2026-07-20T18:43:33.123072","CLASSIFICATION_TYPE":"U","MEAN_MOTION":13.14501524,"ECCENTRICITY":0.00017284,"INCLINATION":87.8954,"RA_OF_ASC_NODE":283.0444,"ARG_OF_PERICENTER":108.1463,"MEAN_ANOMALY":251.9855,"EPHEMERIS_TYPE":0,"NORAD_CAT_ID":55829,"ELEMENT_SET_NO":999,"REV_AT_EPOCH":16384,"BSTAR":-0.00020123034,"MEAN_MOTION_DOT":-6.2e-7,"MEAN_MOTION_DDOT":0},{"OBJECT_NAME":"ONEWEB-0671","OBJECT_ID":"2023-029AL","EPOCH":"2026-07-20T19:14:50.576928","CLASSIFICATION_TYPE":"U","MEAN_MOTION":13.19724257,"ECCENTRICITY":0.00019678,"INCLINATION":87.9185,"RA_OF_ASC_NODE":298.2821,"ARG_OF_PERICENTER":103.8415,"MEAN_ANOMALY":256.2937,"EPHEMERIS_TYPE":0,"NORAD_CAT_ID":55830,"ELEMENT_SET_NO":999,"REV_AT_EPOCH":16333,"BSTAR":-0.000022949076,"MEAN_MOTION_DOT":4e-8,"MEAN_MOTION_DDOT":0},{"OBJECT_NAME":"ONEWEB-0672","OBJECT_ID":"2023-029AM","EPOCH":"2026-07-20T17:30:12.461760","CLASSIFICATION_TYPE":"U","MEAN_MOTION":13.20770974,"ECCENTRICITY":0.00019957,"INCLINATION":87.9178,"RA_OF_ASC_NODE":267.7509,"ARG_OF_PERICENTER":90.7121,"MEAN_ANOMALY":269.4241,"EPHEMERIS_TYPE":0,"NORAD_CAT_ID":55831,"ELEMENT_SET_NO":999,"REV_AT_EPOCH":16557,"BSTAR":0.00012452653,"MEAN_MOTION_DOT":6.4e-7,"MEAN_MOTION_DDOT":0},{"OBJECT_NAME":"ONEWEB-0673","OBJECT_ID":"2023-029AN","EPOCH":"2026-07-20T18:41:51.744768","CLASSIFICATION_TYPE":"U","MEAN_MOTION":13.19725402,"ECCENTRICITY":0.00019599,"INCLINATION":87.919,"RA_OF_ASC_NODE":298.2807,"ARG_OF_PERICENTER":104.2667,"MEAN_ANOMALY":255.8684,"EPHEMERIS_TYPE":0,"NORAD_CAT_ID":55832,"ELEMENT_SET_NO":999,"REV_AT_EPOCH":16333,"BSTAR":0.000065991223,"MEAN_MOTION_DOT":3.9e-7,"MEAN_MOTION_DDOT":0}]}
