ONEWEB-0656             
1 55817U 23029X   26201.68890626  .00000003  00000+0 -23505-4 0  9990
2 55817  87.9181 267.7549 0001785  88.0324 272.1014 13.20770130165573
ONEWEB-0657             
1 55818U 23029Y   26201.81147009  .00000013  00000+0  61787-6 0  9992
2 55818  87.9183 298.2787 0002006  77.2131 282.9226 13.19727382163348
ONEWEB-0658             
1 55819U 23029Z   26201.80671840 -.00000013  00000+0 -65150-4 0  9995
2 55819  87.9193 298.2582 0002388 104.3397 255.8001 13.19726227163350
ONEWEB-0660             
1 55820U 23029AA  26201.77072047  .00000007  00000+0 -16007-4 0  9996
2 55820  87.8972 283.0096 0002002 109.0726 251.0621 13.14501951163816
ONEWEB-0661             
1 55821U 23029AB  26201.72949271 -.00000086  00000+0 -26708-3 0  9990
2 55821  87.8950 283.0571 0001859 107.7565 252.3768 13.14503374163790
ONEWEB-0662             
1 55822U 23029AC  26201.76438568  .00000154  00000+0  37986-3 0  9991
2 55822  87.8955 283.0555 0002009 108.8884 251.2464 13.14502451163844
ONEWEB-0663             
1 55823U 23029AD  26201.94735050 -.00000027  00000+0 -97317-4 0  9994
2 55823  87.9182 267.7741 0002255 108.3834 251.7545 13.20871838165603
ONEWEB-0664             
1 55824U 23029AE  26201.44817439  .00000005  00000+0 -19254-4 0  9991
2 55824  87.9167 267.8510 0001647 105.7229 254.4087 13.20772242165537
ONEWEB-0665             
1 55825U 23029AF  26201.72632363 -.00000130  00000+0 -38612-3 0  9992
2 55825  87.8950 283.0382 0002102 108.1228 252.0131 13.14502792163814
ONEWEB-0666             
1 55826U 23029AG  26201.74444947  .00000083  00000+0  17151-3 0  9994
2 55826  87.9167 267.7819 0002360  81.0405 279.0996 13.20770042165588
ONEWEB-0667             
1 55827U 23029AH  26201.73940645 -.00000568  00000+0 -14300-2 0  9992
2 55827  87.9235 267.7448 0002182  91.8708 268.2676 13.20763109165570
ONEWEB-0669             
1 55828U 23029AJ  26201.20405478  .00000052  00000+0  97069-4 0  9996
2 55828  87.9179 267.8618 0001552  88.7705 271.3606 13.20770956165509
ONEWEB-0670             
1 55829U 23029AK  26201.78024448 -.00000062  00000+0 -20123-3 0  9993
2 55829  87.8954 283.0444 0001728 108.1463 251.9855 13.14501524163841
ONEWEB-0671             
1 55830U 23029AL  26201.80197427  .00000004  00000+0 -22949-4 0  9990
2 55830  87.9185 298.2821 0001967 103.8415 256.2937 13.19724257163339
ONEWEB-0672             
1 55831U 23029AM  26201.72931090  .00000064  00000+0  12453-3 0  9997
2 55831  87.9178 267.7509 0001995  90.7121 269.4241 13.20770974165576
ONEWEB-0673             
1 55832U 23029AN  26201.77907112  .00000039  00000+0  65991-4 0  9999
2 55832  87.9190 298.2807 0001959 104.2667 255.8684 13.19725402163333
